{
  "type": "FeatureCollection",
  "name": "Vietnam_2026_Stops",
  "features": [
    {
      "type": "Feature",
      "geometry": {
        "type": "Point",
        "coordinates": [
          105.853287225169,
          21.0343250429948
        ]
      },
      "properties": {
        "OBJECTID": "3",
        "Place": "La Siesta Classic Ma May",
        "Type": "",
        "Date": "2026-05-18",
        "Region": "Hanoi",
        "Chapter": 1,
        "Note": "Ist stop. Hotel in old Quarter. Really jetlagged. Really nice staff."
      }
    },
    {
      "type": "Feature",
      "geometry": {
        "type": "Point",
        "coordinates": [
          105.833977832136,
          21.0373787031686
        ]
      },
      "properties": {
        "OBJECTID": "4",
        "Place": "Ho Chi Minh mausoleum",
        "Type": "",
        "Date": "2026-05-21",
        "Region": "Hanoi",
        "Chapter": 1,
        "Note": "Mausoleum of Ho Chi Minh. House on stilts, cars, tools; depicting stages in the life."
      }
    },
    {
      "type": "Feature",
      "geometry": {
        "type": "Point",
        "coordinates": [
          105.835886707199,
          21.0292373971328
        ]
      },
      "properties": {
        "OBJECTID": "5",
        "Place": "Temple of Literature",
        "Type": "",
        "Date": "2026-05-21",
        "Region": "Hanoi",
        "Chapter": 1,
        "Note": "Beautiful trees, giant stone tablets for ancient instruction of Vietnamese scholars, impressive entrance"
      }
    },
    {
      "type": "Feature",
      "geometry": {
        "type": "Point",
        "coordinates": [
          105.846652937726,
          21.0255837638547
        ]
      },
      "properties": {
        "OBJECTID": "6",
        "Place": "Hoa Lo Prison: The Furnace",
        "Type": "",
        "Date": "2026-05-22",
        "Region": "Hanoi",
        "Chapter": 1,
        "Note": "The Hannaway Hilton or Heartbreak Hotel."
      }
    },
    {
      "type": "Feature",
      "geometry": {
        "type": "Point",
        "coordinates": [
          105.83701729807,
          21.0478189724608
        ]
      },
      "properties": {
        "OBJECTID": "7",
        "Place": "Tran Quoc Pagoda",
        "Type": "",
        "Date": "2026-05-18",
        "Region": "Hanoi",
        "Chapter": 1,
        "Note": "Crowded and sweltering, but shaded by trees with a nice breeze"
      }
    },
    {
      "type": "Feature",
      "geometry": {
        "type": "Point",
        "coordinates": [
          105.836168319902,
          21.0430574555485
        ]
      },
      "properties": {
        "OBJECTID": "8",
        "Place": "Dan Quan Taoist temple",
        "Type": "",
        "Date": "2026-05-18",
        "Region": "Hanoi",
        "Chapter": 1,
        "Note": "Beautiful Taoist temple, tea service, shedding some grief"
      }
    },
    {
      "type": "Feature",
      "geometry": {
        "type": "Point",
        "coordinates": [
          105.840587904593,
          21.0361679599403
        ]
      },
      "properties": {
        "OBJECTID": "9",
        "Place": "Old citadel",
        "Type": "",
        "Date": "2026-05-18",
        "Region": "Hanoi",
        "Chapter": 1,
        "Note": "The Thang Long Imperial Citadel was built in the 11th century by the Ly Viet Dynasty, marking the independence of the Dai Viet. It was const"
      }
    },
    {
      "type": "Feature",
      "geometry": {
        "type": "Point",
        "coordinates": [
          105.905978735508,
          20.2312534208695
        ]
      },
      "properties": {
        "OBJECTID": "10",
        "Place": "Den Voi",
        "Type": "",
        "Date": "2026-05-24",
        "Region": "Tam Coc",
        "Chapter": 2,
        "Note": "Lovely, neglected temple at end of the road out in the country"
      }
    },
    {
      "type": "Feature",
      "geometry": {
        "type": "Point",
        "coordinates": [
          105.931160549403,
          20.2165344999212
        ]
      },
      "properties": {
        "OBJECTID": "11",
        "Place": "Tam Coc Serenity Bungalow",
        "Type": "",
        "Date": "2026-05-23",
        "Region": "Tam Coc",
        "Chapter": 2,
        "Note": "Decent place with neat little poolside bungalow. Cool design, but cheap materials. Depressed concierge, mediocre breakfast."
      }
    },
    {
      "type": "Feature",
      "geometry": {
        "type": "Point",
        "coordinates": [
          105.890670579786,
          20.2217229953007
        ]
      },
      "properties": {
        "OBJECTID": "12",
        "Place": "Thung Nham Ecozone",
        "Type": "",
        "Date": "2026-05-25",
        "Region": "Tam Coc",
        "Chapter": 2,
        "Note": "Beautiful protected area about 15 K out of town."
      }
    },
    {
      "type": "Feature",
      "geometry": {
        "type": "Point",
        "coordinates": [
          105.919279592253,
          20.248768630746
        ]
      },
      "properties": {
        "OBJECTID": "13",
        "Place": "Trang An Eco complex",
        "Type": "",
        "Date": "2026-05-25",
        "Region": "Tam Coc",
        "Chapter": 2,
        "Note": "Hot as blazes, but oh so beautiful. Tons of people."
      }
    },
    {
      "type": "Feature",
      "geometry": {
        "type": "Point",
        "coordinates": [
          105.851317773114,
          21.0392765321267
        ]
      },
      "properties": {
        "OBJECTID": "14",
        "Place": "Sai Viet Bus: 116 Tran Nhat Duc",
        "Type": "",
        "Date": "2026-05-18",
        "Region": "Hanoi",
        "Chapter": 1,
        "Note": "Transfer to Sapa, street hot and slice in the morning with barbers, grocers, shopkeepers begrudgingly opening @ 90 degrees @ 8am"
      }
    },
    {
      "type": "Feature",
      "geometry": {
        "type": "Point",
        "coordinates": [
          103.846852901689,
          22.326993578691
        ]
      },
      "properties": {
        "OBJECTID": "15",
        "Place": "Pao\u2019s Sapa Leisure Hotel",
        "Type": "",
        "Date": "2026-05-29",
        "Region": "Sapa",
        "Chapter": 3,
        "Note": "Normally simply logistical, but the view is so nice here that it would make one reflective"
      }
    },
    {
      "type": "Feature",
      "geometry": {
        "type": "Point",
        "coordinates": [
          103.845762085524,
          22.3290955363774
        ]
      },
      "properties": {
        "OBJECTID": "16",
        "Place": "King Pizza",
        "Type": "",
        "Date": "2026-05-28",
        "Region": "Sapa",
        "Chapter": 3,
        "Note": "What a pizza! Right up road from hotel. Great before hike."
      }
    },
    {
      "type": "Feature",
      "geometry": {
        "type": "Point",
        "coordinates": [
          103.845753804033,
          22.3291208107821
        ]
      },
      "properties": {
        "OBJECTID": "17",
        "Place": "Mountain Bar",
        "Type": "",
        "Date": "2026-05-28",
        "Region": "Sapa",
        "Chapter": 3,
        "Note": "Great Banh My, tasty buffalo snacks, friendly service!"
      }
    },
    {
      "type": "Feature",
      "geometry": {
        "type": "Point",
        "coordinates": [
          106.300711868824,
          17.6030982531873
        ]
      },
      "properties": {
        "OBJECTID": "18",
        "Place": "Moc Nam Outfitter offices",
        "Type": "",
        "Date": "2026-06-01",
        "Region": "Phong Nha",
        "Chapter": 4,
        "Note": "Pick up for daily adventures"
      }
    },
    {
      "type": "Feature",
      "geometry": {
        "type": "Point",
        "coordinates": [
          106.260837251465,
          17.532524010397
        ]
      },
      "properties": {
        "OBJECTID": "19",
        "Place": "Abandoned Valley Trailhead",
        "Type": "",
        "Date": "2026-06-01",
        "Region": "Phong Nha",
        "Chapter": 4,
        "Note": "Trailhead for E Cave"
      }
    },
    {
      "type": "Feature",
      "geometry": {
        "type": "Point",
        "coordinates": [
          106.269176574556,
          17.5458240370905
        ]
      },
      "properties": {
        "OBJECTID": "20",
        "Place": "E Cave",
        "Type": "",
        "Date": "2026-06-01",
        "Region": "Phong Nha",
        "Chapter": 4,
        "Note": "Fun paddle, sensory deprivation in dark cave, pics from water"
      }
    },
    {
      "type": "Feature",
      "geometry": {
        "type": "Point",
        "coordinates": [
          106.385090917211,
          17.6242385079738
        ]
      },
      "properties": {
        "OBJECTID": "21",
        "Place": "Phong Nha Farmstay",
        "Type": "",
        "Date": "2026-05-31",
        "Region": "Phong Nha",
        "Chapter": 4,
        "Note": "Former tile factory; community farm adjacent"
      }
    },
    {
      "type": "Feature",
      "geometry": {
        "type": "Point",
        "coordinates": [
          107.594816638559,
          16.4671716007721
        ]
      },
      "properties": {
        "OBJECTID": "22",
        "Place": "Scarlett Boutique Hotel",
        "Type": "",
        "Date": "2026-06-03",
        "Region": "Hue",
        "Chapter": 5,
        "Note": "Cool little hotel 1 block away from Perfume River"
      }
    },
    {
      "type": "Feature",
      "geometry": {
        "type": "Point",
        "coordinates": [
          107.544869494804,
          16.4524258046229
        ]
      },
      "properties": {
        "OBJECTID": "23",
        "Place": "Thien Mu Pagoda",
        "Type": "",
        "Date": "2026-06-04",
        "Region": "Hue",
        "Chapter": 5,
        "Note": "The Thi\u00ean M\u1ee5 Temple (meaning Temple of the Celestial Lady, Vietnamese: Ch\u00f9a Thi\u00ean M\u1ee5; also called Linh M\u1ee5 Temple) is a historic temple in th"
      }
    },
    {
      "type": "Feature",
      "geometry": {
        "type": "Point",
        "coordinates": [
          107.558394139937,
          16.4548570736548
        ]
      },
      "properties": {
        "OBJECTID": "24",
        "Place": "Perfume River",
        "Type": "",
        "Date": "2026-06-04",
        "Region": "Hue",
        "Chapter": 5,
        "Note": "The Perfume River (Vietnamese: S\u00f4ng H\u01b0\u01a1ng or H\u01b0\u01a1ng Giang) is a river that crosses the city of Hu\u1ebf, in central Vietnam. In the autumn, flower"
      }
    },
    {
      "type": "Feature",
      "geometry": {
        "type": "Point",
        "coordinates": [
          107.578997589375,
          16.4678583992583
        ]
      },
      "properties": {
        "OBJECTID": "25",
        "Place": "Old Citadel",
        "Type": "",
        "Date": "2026-06-04",
        "Region": "Hue",
        "Chapter": 5,
        "Note": "Citadel, imperial Palace, Forbidden City: The Imperial City or Imperial Palace (Vietnamese: Ho\u00e0ng th\u00e0nh; ch\u1eef H\u00e1n: \u7687\u57ce) also known as \u0110\u1ea1i N\u1ed9i "
      }
    },
    {
      "type": "Feature",
      "geometry": {
        "type": "Point",
        "coordinates": [
          107.589834889217,
          16.4051862455619
        ]
      },
      "properties": {
        "OBJECTID": "26",
        "Place": "Khai Dinh",
        "Type": "",
        "Date": "2026-06-04",
        "Region": "Hue",
        "Chapter": 5,
        "Note": "Tomb of Kh\u1ea3i \u0110\u1ecbnh (Vietnamese: L\u0103ng Kh\u1ea3i \u0110\u1ecbnh, ch\u1eef H\u00e1n: \u9675\u5553\u5b9a), officially \u1ee8ng Mausoleum (\u1ee8ng l\u0103ng, ch\u1eef H\u00e1n: \u61c9\u9675) is a tomb built for Kh\u1ea3i \u0110\u1ecbnh"
      }
    },
    {
      "type": "Feature",
      "geometry": {
        "type": "Point",
        "coordinates": [
          108.132649502088,
          16.188634866451
        ]
      },
      "properties": {
        "OBJECTID": "28",
        "Place": "Hai Van Pass lookout",
        "Type": "",
        "Date": "2026-06-05",
        "Region": "Unclassified",
        "Chapter": 0,
        "Note": "21-kilometre (13 mi) long mountain pass on National Route 1 in Vietnam. It traverses a spur of the larger Annamite Range that juts into the "
      }
    },
    {
      "type": "Feature",
      "geometry": {
        "type": "Point",
        "coordinates": [
          103.876311441039,
          22.3098222226765
        ]
      },
      "properties": {
        "OBJECTID": "29",
        "Place": "A Phu Local: Black H\u2019mong Restaurant",
        "Type": "",
        "Date": "2026-05-29",
        "Region": "Sapa",
        "Chapter": 3,
        "Note": "Nice little lunch spot right in Lao Chai"
      }
    },
    {
      "type": "Feature",
      "geometry": {
        "type": "Point",
        "coordinates": [
          108.36681631703,
          15.8966837435134
        ]
      },
      "properties": {
        "OBJECTID": "30",
        "Place": "Hoi An Neach Resort",
        "Type": "",
        "Date": "2026-06-05",
        "Region": "Hoi An",
        "Chapter": 6,
        "Note": "Giant hotel across street from Cua Dai Beach"
      }
    },
    {
      "type": "Feature",
      "geometry": {
        "type": "Point",
        "coordinates": [
          108.367417071665,
          15.8972604816874
        ]
      },
      "properties": {
        "OBJECTID": "31",
        "Place": "Cua Dai",
        "Type": "",
        "Date": "2026-05-18",
        "Region": "Hoi An",
        "Chapter": 6,
        "Note": "Beach out front of hotel. Great talk last day with Sunflower (Tyreesha) from GA."
      }
    },
    {
      "type": "Feature",
      "geometry": {
        "type": "Point",
        "coordinates": [
          108.335326630228,
          15.9177320153671
        ]
      },
      "properties": {
        "OBJECTID": "32",
        "Place": "An Bang Beach",
        "Type": "",
        "Date": "2026-06-07",
        "Region": "Hoi An",
        "Chapter": 6,
        "Note": "Tranquil, tree-lined beach featuring ke.white sand, palapas, lounge chairs & eateries. Pretty overdeveloped in 2026."
      }
    },
    {
      "type": "Feature",
      "geometry": {
        "type": "Point",
        "coordinates": [
          105.84861994309,
          21.0360915230637
        ]
      },
      "properties": {
        "OBJECTID": "33",
        "Place": "Banh Mi 25",
        "Type": "",
        "Date": "2026-05-20",
        "Region": "Hanoi",
        "Chapter": 1,
        "Note": "1st dinner stop."
      }
    },
    {
      "type": "Feature",
      "geometry": {
        "type": "Point",
        "coordinates": [
          105.851307874391,
          21.0349385954818
        ]
      },
      "properties": {
        "OBJECTID": "34",
        "Place": "Bun Cha Qu Tre",
        "Type": "",
        "Date": "2026-05-21",
        "Region": "Hanoi",
        "Chapter": 1,
        "Note": "Tasty intro to Hanoi delicacy. Rich pork broth. Cold Beer. Nice, small family place."
      }
    },
    {
      "type": "Feature",
      "geometry": {
        "type": "Point",
        "coordinates": [
          105.853313634189,
          21.0308561303702
        ]
      },
      "properties": {
        "OBJECTID": "35",
        "Place": "Hoan Kiem Lake",
        "Type": "",
        "Date": "2026-05-22",
        "Region": "Hanoi",
        "Chapter": 1,
        "Note": "Peacefgul inner city lake filled with people walking, stretching, meditating, dancing, having coffee."
      }
    },
    {
      "type": "Feature",
      "geometry": {
        "type": "Point",
        "coordinates": [
          105.847882517983,
          21.0250648294376
        ]
      },
      "properties": {
        "OBJECTID": "36",
        "Place": "Book Street",
        "Type": "",
        "Date": "2026-05-22",
        "Region": "Hanoi",
        "Chapter": 1,
        "Note": "Cute little walkway dedicated to local bookstores, mostly kid lit"
      }
    },
    {
      "type": "Feature",
      "geometry": {
        "type": "Point",
        "coordinates": [
          105.851134878622,
          21.0330398705244
        ]
      },
      "properties": {
        "OBJECTID": "37",
        "Place": "Night Market",
        "Type": "",
        "Date": "2026-05-22",
        "Region": "Hanoi",
        "Chapter": 1,
        "Note": "Birghtly lit night market with clothes, shoes, bags, candies, toys, etc."
      }
    },
    {
      "type": "Feature",
      "geometry": {
        "type": "Point",
        "coordinates": [
          105.850732805876,
          21.0340551932884
        ]
      },
      "properties": {
        "OBJECTID": "38",
        "Place": "Meeting spot for Duy Khang Limo",
        "Type": "",
        "Date": "2026-05-23",
        "Region": "Hanoi",
        "Chapter": 1,
        "Note": "Confusing meet up spot; terrible communication from company"
      }
    },
    {
      "type": "Feature",
      "geometry": {
        "type": "Point",
        "coordinates": [
          105.929918054016,
          20.2075056968481
        ]
      },
      "properties": {
        "OBJECTID": "49",
        "Place": "Tam Coc Mt. View Restaurant",
        "Type": "",
        "Date": "2026-05-24",
        "Region": "Tam Coc",
        "Chapter": 2,
        "Note": "Beautiful location overlooking the rice fields"
      }
    },
    {
      "type": "Feature",
      "geometry": {
        "type": "Point",
        "coordinates": [
          105.934371951143,
          20.2164851569005
        ]
      },
      "properties": {
        "OBJECTID": "50",
        "Place": "Tam Spa Tac Coc",
        "Type": "",
        "Date": "2026-05-24",
        "Region": "Tam Coc",
        "Chapter": 2,
        "Note": "Deep, deep tissue massage"
      }
    },
    {
      "type": "Feature",
      "geometry": {
        "type": "Point",
        "coordinates": [
          105.918240077435,
          20.2179201582483
        ]
      },
      "properties": {
        "OBJECTID": "51",
        "Place": "Bich Dong",
        "Type": "",
        "Date": "2026-05-25",
        "Region": "Tam Coc",
        "Chapter": 2,
        "Note": "Beautiful hillside temple, open cave"
      }
    },
    {
      "type": "Feature",
      "geometry": {
        "type": "Point",
        "coordinates": [
          105.932392158711,
          20.2285674793065
        ]
      },
      "properties": {
        "OBJECTID": "52",
        "Place": "Hang Mua",
        "Type": "",
        "Date": "2026-05-25",
        "Region": "Tam Coc",
        "Chapter": 2,
        "Note": "Old pagoda, cave, and expansive lookout over valleys to East and West, grerat tour with young women from Brighton and couple from Perth"
      }
    },
    {
      "type": "Feature",
      "geometry": {
        "type": "Point",
        "coordinates": [
          105.908027674004,
          20.2309352500456
        ]
      },
      "properties": {
        "OBJECTID": "53",
        "Place": "Voi Restaurant",
        "Type": "",
        "Date": "2026-05-26",
        "Region": "Tam Coc",
        "Chapter": 2,
        "Note": "Impromptu stop at family home in country for breakfast"
      }
    },
    {
      "type": "Feature",
      "geometry": {
        "type": "Point",
        "coordinates": [
          105.938214308544,
          20.216453624593
        ]
      },
      "properties": {
        "OBJECTID": "54",
        "Place": "Bus station",
        "Type": "",
        "Date": "2026-05-26",
        "Region": "Tam Coc",
        "Chapter": 2,
        "Note": "return to Hanoi with different company"
      }
    },
    {
      "type": "Feature",
      "geometry": {
        "type": "Point",
        "coordinates": [
          103.851260450965,
          22.3389945205817
        ]
      },
      "properties": {
        "OBJECTID": "55",
        "Place": "Van Phong Sapa",
        "Type": "",
        "Date": "2026-05-27",
        "Region": "Sapa",
        "Chapter": 3,
        "Note": "Bust stop; met a sweet guide who showed me local eats"
      }
    },
    {
      "type": "Feature",
      "geometry": {
        "type": "Point",
        "coordinates": [
          103.853763845827,
          22.3395079031886
        ]
      },
      "properties": {
        "OBJECTID": "56",
        "Place": "Banh Cuon Co Tuat",
        "Type": "",
        "Date": "2026-05-27",
        "Region": "Sapa",
        "Chapter": 3,
        "Note": "1st eats in Sapa with guide"
      }
    },
    {
      "type": "Feature",
      "geometry": {
        "type": "Point",
        "coordinates": [
          103.850276259027,
          22.3392882600805
        ]
      },
      "properties": {
        "OBJECTID": "57",
        "Place": "Banh Mi Pham Tang",
        "Type": "",
        "Date": "2026-05-30",
        "Region": "Sapa",
        "Chapter": 3,
        "Note": "Sweet little sandwich stand with tasty, cheap banh mi"
      }
    },
    {
      "type": "Feature",
      "geometry": {
        "type": "Point",
        "coordinates": [
          103.840934666455,
          22.333635600603
        ]
      },
      "properties": {
        "OBJECTID": "58",
        "Place": "Sapa Sisters",
        "Type": "",
        "Date": "2026-05-29",
        "Region": "Sapa",
        "Chapter": 3,
        "Note": "Black H'Mong Female owned and operated Trekking Outfitter"
      }
    },
    {
      "type": "Feature",
      "geometry": {
        "type": "Point",
        "coordinates": [
          103.840936446628,
          22.3336508103274
        ]
      },
      "properties": {
        "OBJECTID": "59",
        "Place": "Sapa Sisters",
        "Type": "",
        "Date": "2026-05-29",
        "Region": "Sapa",
        "Chapter": 3,
        "Note": "Black H'Mong Female owned and operated Trekking Outfitter"
      }
    },
    {
      "type": "Feature",
      "geometry": {
        "type": "Point",
        "coordinates": [
          103.854101087488,
          22.318149603174
        ]
      },
      "properties": {
        "OBJECTID": "60",
        "Place": "Huang Moa Valley",
        "Type": "",
        "Date": "2026-05-29",
        "Region": "Sapa",
        "Chapter": 3,
        "Note": "Pics of terraced rice fields, indigo"
      }
    },
    {
      "type": "Feature",
      "geometry": {
        "type": "Point",
        "coordinates": [
          106.593103402989,
          17.5117473842563
        ]
      },
      "properties": {
        "OBJECTID": "61",
        "Place": "Dong Hoi Airport",
        "Type": "",
        "Date": "2026-05-31",
        "Region": "Phong Nha",
        "Chapter": 4,
        "Note": "transfer to Phong Nha from Hanoi"
      }
    },
    {
      "type": "Feature",
      "geometry": {
        "type": "Point",
        "coordinates": [
          107.585894676154,
          16.4684317369061
        ]
      },
      "properties": {
        "OBJECTID": "62",
        "Place": "Waterfront park",
        "Type": "",
        "Date": "2026-06-03",
        "Region": "Hue",
        "Chapter": 5,
        "Note": "Beautiful riverfront esplanade with much activity"
      }
    },
    {
      "type": "Feature",
      "geometry": {
        "type": "Point",
        "coordinates": [
          107.59556492892,
          16.4688172219882
        ]
      },
      "properties": {
        "OBJECTID": "63",
        "Place": "Madam Thu 2",
        "Type": "",
        "Date": "2026-06-03",
        "Region": "Hue",
        "Chapter": 5,
        "Note": "Vietnamese restaurant catering to tourists with great selection of Hue specific style foods"
      }
    },
    {
      "type": "Feature",
      "geometry": {
        "type": "Point",
        "coordinates": [
          107.588513599181,
          16.4730154718222
        ]
      },
      "properties": {
        "OBJECTID": "64",
        "Place": "De-Po Cafe",
        "Type": "",
        "Date": "2026-06-04",
        "Region": "Hue",
        "Chapter": 5,
        "Note": "Great iced salt coffee, snacks and water too"
      }
    },
    {
      "type": "Feature",
      "geometry": {
        "type": "Point",
        "coordinates": [
          107.561980497409,
          16.435409931527
        ]
      },
      "properties": {
        "OBJECTID": "65",
        "Place": "Thuy Xuan Incense Village",
        "Type": "",
        "Date": "2026-06-04",
        "Region": "Hue",
        "Chapter": 5,
        "Note": "Thuy Xuan Incense Village is a colorful and unique stop when visiting Hue. The vibrant bundles of incense create beautiful photo opportuniti"
      }
    },
    {
      "type": "Feature",
      "geometry": {
        "type": "Point",
        "coordinates": [
          107.56837628505,
          16.3875548151264
        ]
      },
      "properties": {
        "OBJECTID": "66",
        "Place": "Mausoleum of Emperor Minh Mang",
        "Type": "",
        "Date": "2026-06-04",
        "Region": "Hue",
        "Chapter": 5,
        "Note": "Minh M\u1ea1ng (Hanoi: [m\u00ef\u014b\u02e7 ma\u02d0\u014b\u02e7\u02e8\u0294]), also known as Minh M\u1ec7nh (Hanoi: [m\u00ef\u014b\u02e7 m\u0259j\u014b\u031f\u02e7\u02e8\u0294], ch\u1eef H\u00e1n: \u660e \u547d, lit. 'the bright favour of Heaven';[1] 25 "
      }
    },
    {
      "type": "Feature",
      "geometry": {
        "type": "Point",
        "coordinates": [
          108.0779902052,
          16.2393453511688
        ]
      },
      "properties": {
        "OBJECTID": "67",
        "Place": "Viet Pearl",
        "Type": "",
        "Date": "2026-06-05",
        "Region": "Unclassified",
        "Chapter": 0,
        "Note": "Coffe shop and Jewelry stop at Lagoon on way to Hoi An"
      }
    },
    {
      "type": "Feature",
      "geometry": {
        "type": "Point",
        "coordinates": [
          107.642655562375,
          16.466719720984
        ]
      },
      "properties": {
        "OBJECTID": "68",
        "Place": "Thanh Toan Bridge",
        "Type": "",
        "Date": "2026-06-05",
        "Region": "Hue",
        "Chapter": 5,
        "Note": "Thanh Toan Bridge was built in the late 18th century during the reign of the Nguyen Dynasty, specifically under the leadership of Lord Nguye"
      }
    },
    {
      "type": "Feature",
      "geometry": {
        "type": "Point",
        "coordinates": [
          108.262441859549,
          16.0040642030063
        ]
      },
      "properties": {
        "OBJECTID": "69",
        "Place": "The Marble Mountains",
        "Type": "",
        "Date": "2026-06-05",
        "Region": "Hoi An",
        "Chapter": 6,
        "Note": "Marble Mountains is a group of five limestone peaks situated seven kilometres from downtown Da Nang. The five karsts (called Ngu Hanh Son in"
      }
    },
    {
      "type": "Feature",
      "geometry": {
        "type": "Point",
        "coordinates": [
          108.365407939853,
          15.8974385087063
        ]
      },
      "properties": {
        "OBJECTID": "70",
        "Place": "Cao Cao Grrasshopper",
        "Type": "",
        "Date": "2026-06-05",
        "Region": "Hoi An",
        "Chapter": 6,
        "Note": "1st stop for dinner; great Cao Lau and Banh Xeo surprise. Family of tailor next door who made my clothes."
      }
    },
    {
      "type": "Feature",
      "geometry": {
        "type": "Point",
        "coordinates": [
          108.365276332841,
          15.8973614641505
        ]
      },
      "properties": {
        "OBJECTID": "71",
        "Place": "Bao Ni Cloth Shop",
        "Type": "",
        "Date": "2026-06-06",
        "Region": "Hoi An",
        "Chapter": 6,
        "Note": "Tailro who made my clothes; shrewd business woman, quick turn around"
      }
    },
    {
      "type": "Feature",
      "geometry": {
        "type": "Point",
        "coordinates": [
          108.363954540107,
          15.8959251239859
        ]
      },
      "properties": {
        "OBJECTID": "72",
        "Place": "RAM Spring Roll Restaurant",
        "Type": "",
        "Date": "2026-06-06",
        "Region": "Hoi An",
        "Chapter": 6,
        "Note": "Random lunch spot with best banh mi flavor yet!"
      }
    },
    {
      "type": "Feature",
      "geometry": {
        "type": "Point",
        "coordinates": [
          108.364807125033,
          15.8966240342165
        ]
      },
      "properties": {
        "OBJECTID": "73",
        "Place": "Bao Han Restaurant",
        "Type": "",
        "Date": "2026-06-07",
        "Region": "Hoi An",
        "Chapter": 6,
        "Note": "Family resturant with good seafood, meal last night in Hoi An"
      }
    },
    {
      "type": "Feature",
      "geometry": {
        "type": "Point",
        "coordinates": [
          108.365591045147,
          15.8983410313939
        ]
      },
      "properties": {
        "OBJECTID": "74",
        "Place": "Tan Loc Seafood",
        "Type": "",
        "Date": "2026-06-06",
        "Region": "Hoi An",
        "Chapter": 6,
        "Note": "Popular seafood restauratn on beach; decent food, poor service"
      }
    },
    {
      "type": "Feature",
      "geometry": {
        "type": "Point",
        "coordinates": [
          108.325840879932,
          15.8785699129499
        ]
      },
      "properties": {
        "OBJECTID": "75",
        "Place": "Anh Khoa",
        "Type": "",
        "Date": "2026-06-06",
        "Region": "Hoi An",
        "Chapter": 6,
        "Note": "Local scooter and E bike rental spot, great drop off/pick up service"
      }
    },
    {
      "type": "Feature",
      "geometry": {
        "type": "Point",
        "coordinates": [
          108.325591253105,
          15.881720076412
        ]
      },
      "properties": {
        "OBJECTID": "76",
        "Place": "Thu: Bags, Luggage, Outdoor clothing",
        "Type": "",
        "Date": "2026-06-07",
        "Region": "Hoi An",
        "Chapter": 6,
        "Note": "Ladt minute stop for soft side carry on for all of tailored clothes."
      }
    },
    {
      "type": "Feature",
      "geometry": {
        "type": "Point",
        "coordinates": [
          108.36595923285,
          15.8977320737329
        ]
      },
      "properties": {
        "OBJECTID": "77",
        "Place": "Phong Tai Mini Mart",
        "Type": "",
        "Date": "2026-06-06",
        "Region": "Hoi An",
        "Chapter": 6,
        "Note": "Simple convenience store. Best Salt Coffee in Vietnam"
      }
    },
    {
      "type": "Feature",
      "geometry": {
        "type": "Point",
        "coordinates": [
          108.202658801642,
          16.0542604478309
        ]
      },
      "properties": {
        "OBJECTID": "78",
        "Place": "Da Nang Airport",
        "Type": "",
        "Date": "2026-06-08",
        "Region": "Hoi An",
        "Chapter": 6,
        "Note": "Last flight back to Hanoi and then out, beautiful beach morning"
      }
    },
    {
      "type": "Feature",
      "geometry": {
        "type": "Point",
        "coordinates": [
          105.85263903155,
          21.0364357478641
        ]
      },
      "properties": {
        "OBJECTID": "79",
        "Place": "Cai Mam",
        "Type": "",
        "Date": "2026-05-30",
        "Region": "Hanoi",
        "Chapter": 1,
        "Note": "Restaurant with S. Vietnamese cuisine; sweeter, sour"
      }
    },
    {
      "type": "Feature",
      "geometry": {
        "type": "Point",
        "coordinates": [
          105.852002945944,
          21.0351002781988
        ]
      },
      "properties": {
        "OBJECTID": "80",
        "Place": "Banh Mi Don Don",
        "Type": "",
        "Date": "2026-05-26",
        "Region": "Hanoi",
        "Chapter": 1,
        "Note": "tiny spot with good BBQ Pork Banh Mi"
      }
    },
    {
      "type": "Feature",
      "geometry": {
        "type": "Point",
        "coordinates": [
          105.853738156406,
          21.0335502892239
        ]
      },
      "properties": {
        "OBJECTID": "81",
        "Place": "Duong Ha Natural Gemstones",
        "Type": "",
        "Date": "2026-06-09",
        "Region": "Hanoi",
        "Chapter": 1,
        "Note": "Tiny Jewelry shop where I found mom some jade earrings"
      }
    },
    {
      "type": "Feature",
      "geometry": {
        "type": "Point",
        "coordinates": [
          105.854292658427,
          21.0330403265185
        ]
      },
      "properties": {
        "OBJECTID": "82",
        "Place": "Hanoi Draft Beer",
        "Type": "",
        "Date": "2026-05-26",
        "Region": "Hanoi",
        "Chapter": 1,
        "Note": "Used to be Hanoi Draft Beer and Traditional Food; passed down to son, but new fees on sidewalk tables killed restaurant"
      }
    },
    {
      "type": "Feature",
      "geometry": {
        "type": "Point",
        "coordinates": [
          105.85448997956,
          21.0341648123827
        ]
      },
      "properties": {
        "OBJECTID": "83",
        "Place": "Pho Ga Dac Biet",
        "Type": "",
        "Date": "2026-06-08",
        "Region": "Hanoi",
        "Chapter": 1,
        "Note": "Best chicken soup ever"
      }
    },
    {
      "type": "Feature",
      "geometry": {
        "type": "Point",
        "coordinates": [
          105.853269752001,
          21.0342765091426
        ]
      },
      "properties": {
        "OBJECTID": "84",
        "Place": "Red Bean Ma May",
        "Type": "",
        "Date": "2026-05-20",
        "Region": "Hanoi",
        "Chapter": 1,
        "Note": "Perhaps best all around restaurant I tried in Vietnam."
      }
    }
  ]
}